OSCAR 7 (AO-7)          
1 07530U 74089B   26063.54068365 -.00000047  00000+0 -13182-5 0  9999
2 07530 101.9969  75.6751 0012019 332.1517 146.3053 12.53696283347403
PHASE 3B (AO-10)        
1 14129U 83058B   26061.53393855 -.00000164  00000+0  00000+0 0  9997
2 14129  25.9320 237.4860 6049007  86.0782 336.7646  2.05874052293290
UOSAT 2 (UO-11)         
1 14781U 84021B   26063.43724089  .00002678  00000+0  27997-3 0  9999
2 14781  97.7938  30.2759 0007990 159.4954 200.6587 14.90483256241528
LUSAT (LO-19)           
1 20442U 90005G   26063.03935948  .00000219  00000+0  94890-4 0  9999
2 20442  98.8938  81.9063 0012121 150.1844 210.0033 14.34085341887326
EYESAT A (AO-27)        
1 22825U 93061C   26063.18293131  .00000168  00000+0  81158-4 0  9994
2 22825  98.6993 130.5887 0009191  53.8329 306.3702 14.30911008691988
ITAMSAT (IO-26)         
1 22826U 93061D   26063.61294916  .00000187  00000+0  87513-4 0  9997
2 22826  98.6941 130.9260 0009478  37.2100 322.9738 14.31335036692359
RADIO ROSTO (RS15)      
1 23439U 94085A   26063.64025301 -.00000008  00000+0  97708-3 0  9997
2 23439  64.8145 112.3004 0152484  22.9798 337.7855 11.27583870284119
JAS-2 (FO-29)           
1 24278U 96046B   26063.47147409 -.00000014  00000+0  21895-4 0  9995
2 24278  98.5389 286.5967 0350044   8.3024 352.3707 13.53268461459007
TECHSAT 1B (GO-32)      
1 25397U 98043D   26063.47176809  .00000141  00000+0  80934-4 0  9992
2 25397  99.0021  53.6166 0001909 127.7289 232.4062 14.24404532436428
ISS (ZARYA)             
1 25544U 98067A   26063.86671769  .00009014  00000+0  17477-3 0  9999
2 25544  51.6315  96.2009 0008177 157.5272 202.6076 15.48447334555585
PCSAT (NO-44)           
1 26931U 01043C   26063.66902615  .00000273  00000+0  13289-3 0  9998
2 26931  67.0509 154.5970 0007024 265.3460  94.6840 14.31909218275485
SAUDISAT 1C (SO-50)     
1 27607U 02058C   26063.55905927  .00002482  00000+0  30977-3 0  9990
2 27607  64.5519  92.6406 0075153 281.6341  77.6337 14.82758712248942
CUTE-1 (CO-55)          
1 27844U 03031E   26063.50570256  .00000469  00000+0  22228-3 0  9996
2 27844  98.6779  73.3688 0010519 125.9821 234.2335 14.24261171176771
CUBESAT XI-IV (CO-57)   
1 27848U 03031J   26062.94998598  .00000409  00000+0  19861-3 0  9993
2 27848  98.6808  72.6171 0010137 144.0340 216.1522 14.23556668176405
MOZHAETS 4 (RS22)       
1 27939U 03042A   26063.84035381  .00002205  00000+0  34945-3 0  9994
2 27939  98.3425 245.2667 0010296 237.0782 235.2209 14.73238895200186
CUBESAT XI-V            
1 28895U 05043F   26063.41486978  .00003252  00000+0  52204-3 0  9995
2 28895  98.2818 216.9395 0014429 174.0246 186.1135 14.72292579 86332
