[{"OBJECT_NAME":"OSCAR 7 (AO-7)","OBJECT_ID":"1974-089B","EPOCH":"2026-03-04T12:58:35.067360","MEAN_MOTION":12.53696283,"ECCENTRICITY":0.0012019,"INCLINATION":101.9969,"RA_OF_ASC_NODE":75.6751,"ARG_OF_PERICENTER":332.1517,"MEAN_ANOMALY":146.3053,"EPHEMERIS_TYPE":0,"CLASSIFICATION_TYPE":"U","NORAD_CAT_ID":7530,"ELEMENT_SET_NO":999,"REV_AT_EPOCH":34740,"BSTAR":-1.3182e-6,"MEAN_MOTION_DOT":-4.7e-7,"MEAN_MOTION_DDOT":0},{"OBJECT_NAME":"PHASE 3B (AO-10)","OBJECT_ID":"1983-058B","EPOCH":"2026-03-02T12:48:52.290720","MEAN_MOTION":2.05874052,"ECCENTRICITY":0.6049007,"INCLINATION":25.932,"RA_OF_ASC_NODE":237.486,"ARG_OF_PERICENTER":86.0782,"MEAN_ANOMALY":336.7646,"EPHEMERIS_TYPE":0,"CLASSIFICATION_TYPE":"U","NORAD_CAT_ID":14129,"ELEMENT_SET_NO":999,"REV_AT_EPOCH":29329,"BSTAR":0,"MEAN_MOTION_DOT":-1.64e-6,"MEAN_MOTION_DDOT":0},{"OBJECT_NAME":"UOSAT 2 (UO-11)","OBJECT_ID":"1984-021B","EPOCH":"2026-03-04T10:29:37.612896","MEAN_MOTION":14.90483256,"ECCENTRICITY":0.000799,"INCLINATION":97.7938,"RA_OF_ASC_NODE":30.2759,"ARG_OF_PERICENTER":159.4954,"MEAN_ANOMALY":200.6587,"EPHEMERIS_TYPE":0,"CLASSIFICATION_TYPE":"U","NORAD_CAT_ID":14781,"ELEMENT_SET_NO":999,"REV_AT_EPOCH":24152,"BSTAR":0.00027997185,"MEAN_MOTION_DOT":2.678e-5,"MEAN_MOTION_DDOT":0},{"OBJECT_NAME":"LUSAT (LO-19)","OBJECT_ID":"1990-005G","EPOCH":"2026-03-04T00:56:40.659072","MEAN_MOTION":14.34085341,"ECCENTRICITY":0.00121211,"INCLINATION":98.8938,"RA_OF_ASC_NODE":81.9063,"ARG_OF_PERICENTER":150.1844,"MEAN_ANOMALY":210.0033,"EPHEMERIS_TYPE":0,"CLASSIFICATION_TYPE":"U","NORAD_CAT_ID":20442,"ELEMENT_SET_NO":999,"REV_AT_EPOCH":88732,"BSTAR":9.4890385e-5,"MEAN_MOTION_DOT":2.19e-6,"MEAN_MOTION_DDOT":0},{"OBJECT_NAME":"EYESAT A (AO-27)","OBJECT_ID":"1993-061C","EPOCH":"2026-03-04T04:23:25.265184","MEAN_MOTION":14.30911008,"ECCENTRICITY":0.00091917,"INCLINATION":98.6993,"RA_OF_ASC_NODE":130.5887,"ARG_OF_PERICENTER":53.8329,"MEAN_ANOMALY":306.3702,"EPHEMERIS_TYPE":0,"CLASSIFICATION_TYPE":"U","NORAD_CAT_ID":22825,"ELEMENT_SET_NO":999,"REV_AT_EPOCH":69198,"BSTAR":8.1157944e-5,"MEAN_MOTION_DOT":1.68e-6,"MEAN_MOTION_DDOT":0},{"OBJECT_NAME":"ITAMSAT (IO-26)","OBJECT_ID":"1993-061D","EPOCH":"2026-03-04T14:42:38.807424","MEAN_MOTION":14.31335036,"ECCENTRICITY":0.0009478,"INCLINATION":98.6941,"RA_OF_ASC_NODE":130.926,"ARG_OF_PERICENTER":37.21,"MEAN_ANOMALY":322.9738,"EPHEMERIS_TYPE":0,"CLASSIFICATION_TYPE":"U","NORAD_CAT_ID":22826,"ELEMENT_SET_NO":999,"REV_AT_EPOCH":69235,"BSTAR":8.7513e-5,"MEAN_MOTION_DOT":1.87e-6,"MEAN_MOTION_DDOT":0},{"OBJECT_NAME":"RADIO ROSTO (RS15)","OBJECT_ID":"1994-085A","EPOCH":"2026-03-04T15:21:57.860064","MEAN_MOTION":11.2758387,"ECCENTRICITY":0.0152484,"INCLINATION":64.8145,"RA_OF_ASC_NODE":112.3004,"ARG_OF_PERICENTER":22.9798,"MEAN_ANOMALY":337.7855,"EPHEMERIS_TYPE":0,"CLASSIFICATION_TYPE":"U","NORAD_CAT_ID":23439,"ELEMENT_SET_NO":999,"REV_AT_EPOCH":28411,"BSTAR":0.00097708,"MEAN_MOTION_DOT":-8.0e-8,"MEAN_MOTION_DDOT":0},{"OBJECT_NAME":"JAS-2 (FO-29)","OBJECT_ID":"1996-046B","EPOCH":"2026-03-04T11:18:55.361376","MEAN_MOTION":13.53268461,"ECCENTRICITY":0.03500449,"INCLINATION":98.5389,"RA_OF_ASC_NODE":286.5967,"ARG_OF_PERICENTER":8.3024,"MEAN_ANOMALY":352.3707,"EPHEMERIS_TYPE":0,"CLASSIFICATION_TYPE":"U","NORAD_CAT_ID":24278,"ELEMENT_SET_NO":999,"REV_AT_EPOCH":45900,"BSTAR":2.1895446e-5,"MEAN_MOTION_DOT":-1.4e-7,"MEAN_MOTION_DDOT":0},{"OBJECT_NAME":"TECHSAT 1B (GO-32)","OBJECT_ID":"1998-043D","EPOCH":"2026-03-04T11:19:20.762976","MEAN_MOTION":14.24404532,"ECCENTRICITY":0.00019092,"INCLINATION":99.0021,"RA_OF_ASC_NODE":53.6166,"ARG_OF_PERICENTER":127.7289,"MEAN_ANOMALY":232.4062,"EPHEMERIS_TYPE":0,"CLASSIFICATION_TYPE":"U","NORAD_CAT_ID":25397,"ELEMENT_SET_NO":999,"REV_AT_EPOCH":43642,"BSTAR":8.0933571e-5,"MEAN_MOTION_DOT":1.41e-6,"MEAN_MOTION_DDOT":0},{"OBJECT_NAME":"ISS (ZARYA)","OBJECT_ID":"1998-067A","EPOCH":"2026-03-04T20:48:04.408416","MEAN_MOTION":15.48447334,"ECCENTRICITY":0.0008177,"INCLINATION":51.6315,"RA_OF_ASC_NODE":96.2009,"ARG_OF_PERICENTER":157.5272,"MEAN_ANOMALY":202.6076,"EPHEMERIS_TYPE":0,"CLASSIFICATION_TYPE":"U","NORAD_CAT_ID":25544,"ELEMENT_SET_NO":999,"REV_AT_EPOCH":55558,"BSTAR":0.00017477,"MEAN_MOTION_DOT":9.014e-5,"MEAN_MOTION_DDOT":0},{"OBJECT_NAME":"PCSAT (NO-44)","OBJECT_ID":"2001-043C","EPOCH":"2026-03-04T16:03:23.859360","MEAN_MOTION":14.31909218,"ECCENTRICITY":0.0007024,"INCLINATION":67.0509,"RA_OF_ASC_NODE":154.597,"ARG_OF_PERICENTER":265.346,"MEAN_ANOMALY":94.684,"EPHEMERIS_TYPE":0,"CLASSIFICATION_TYPE":"U","NORAD_CAT_ID":26931,"ELEMENT_SET_NO":999,"REV_AT_EPOCH":27548,"BSTAR":0.00013289,"MEAN_MOTION_DOT":2.73e-6,"MEAN_MOTION_DDOT":0},{"OBJECT_NAME":"SAUDISAT 1C (SO-50)","OBJECT_ID":"2002-058C","EPOCH":"2026-03-04T13:25:02.720928","MEAN_MOTION":14.82758712,"ECCENTRICITY":0.0075153,"INCLINATION":64.5519,"RA_OF_ASC_NODE":92.6406,"ARG_OF_PERICENTER":281.6341,"MEAN_ANOMALY":77.6337,"EPHEMERIS_TYPE":0,"CLASSIFICATION_TYPE":"U","NORAD_CAT_ID":27607,"ELEMENT_SET_NO":999,"REV_AT_EPOCH":24894,"BSTAR":0.00030977,"MEAN_MOTION_DOT":2.482e-5,"MEAN_MOTION_DDOT":0},{"OBJECT_NAME":"CUTE-1 (CO-55)","OBJECT_ID":"2003-031E","EPOCH":"2026-03-04T12:08:12.701184","MEAN_MOTION":14.24261171,"ECCENTRICITY":0.0010519,"INCLINATION":98.6779,"RA_OF_ASC_NODE":73.3688,"ARG_OF_PERICENTER":125.9821,"MEAN_ANOMALY":234.2335,"EPHEMERIS_TYPE":0,"CLASSIFICATION_TYPE":"U","NORAD_CAT_ID":27844,"ELEMENT_SET_NO":999,"REV_AT_EPOCH":17677,"BSTAR":0.00022228,"MEAN_MOTION_DOT":4.69e-6,"MEAN_MOTION_DDOT":0},{"OBJECT_NAME":"CUBESAT XI-IV (CO-57)","OBJECT_ID":"2003-031J","EPOCH":"2026-03-03T22:47:58.788672","MEAN_MOTION":14.23556668,"ECCENTRICITY":0.0010137,"INCLINATION":98.6808,"RA_OF_ASC_NODE":72.6171,"ARG_OF_PERICENTER":144.034,"MEAN_ANOMALY":216.1522,"EPHEMERIS_TYPE":0,"CLASSIFICATION_TYPE":"U","NORAD_CAT_ID":27848,"ELEMENT_SET_NO":999,"REV_AT_EPOCH":17640,"BSTAR":0.00019861,"MEAN_MOTION_DOT":4.09e-6,"MEAN_MOTION_DDOT":0},{"OBJECT_NAME":"MOZHAETS 4 (RS22)","OBJECT_ID":"2003-042A","EPOCH":"2026-03-04T20:10:06.569184","MEAN_MOTION":14.73238895,"ECCENTRICITY":0.0010296,"INCLINATION":98.3425,"RA_OF_ASC_NODE":245.2667,"ARG_OF_PERICENTER":237.0782,"MEAN_ANOMALY":235.2209,"EPHEMERIS_TYPE":0,"CLASSIFICATION_TYPE":"U","NORAD_CAT_ID":27939,"ELEMENT_SET_NO":999,"REV_AT_EPOCH":20018,"BSTAR":0.00034945,"MEAN_MOTION_DOT":2.205e-5,"MEAN_MOTION_DDOT":0},{"OBJECT_NAME":"CUBESAT XI-V","OBJECT_ID":"2005-043F","EPOCH":"2026-03-04T09:57:24.748992","MEAN_MOTION":14.72292579,"ECCENTRICITY":0.00144296,"INCLINATION":98.2818,"RA_OF_ASC_NODE":216.9395,"ARG_OF_PERICENTER":174.0246,"MEAN_ANOMALY":186.1135,"EPHEMERIS_TYPE":0,"CLASSIFICATION_TYPE":"U","NORAD_CAT_ID":28895,"ELEMENT_SET_NO":999,"REV_AT_EPOCH":8633,"BSTAR":0.00052204357,"MEAN_MOTION_DOT":3.252e-5,"MEAN_MOTION_DDOT":0}]
